{
    "links": {
        "self": "http://www.neowsapp.com/rest/v1/neo/3397568?api_key=iIulBulltgU6a56xZRHN4H3l9WmuAYTsLGpBGhQ2"
    },
    "id": "3397568",
    "neo_reference_id": "3397568",
    "name": "(2007 XO3)",
    "designation": "2007 XO3",
    "nasa_jpl_url": "http://ssd.jpl.nasa.gov/sbdb.cgi?sstr=3397568",
    "absolute_magnitude_h": 22.9,
    "estimated_diameter": {
        "kilometers": {
            "estimated_diameter_min": 0.0699125232,
            "estimated_diameter_max": 0.1563291544
        },
        "meters": {
            "estimated_diameter_min": 69.9125232246,
            "estimated_diameter_max": 156.3291544087
        },
        "miles": {
            "estimated_diameter_min": 0.0434416145,
            "estimated_diameter_max": 0.097138403
        },
        "feet": {
            "estimated_diameter_min": 229.3718026961,
            "estimated_diameter_max": 512.8909429502
        }
    },
    "is_potentially_hazardous_asteroid": false,
    "close_approach_data": [
        {
            "close_approach_date": "2007-12-05",
            "close_approach_date_full": "2007-Dec-05 21:03",
            "epoch_date_close_approach": 1196888580000,
            "relative_velocity": {
                "kilometers_per_second": "8.8883141428",
                "kilometers_per_hour": "31997.9309142211",
                "miles_per_hour": "19882.269906117"
            },
            "miss_distance": {
                "astronomical": "0.1430682526",
                "lunar": "55.6535502614",
                "kilometers": "21402705.853581962",
                "miles": "13299024.7334445956"
            },
            "orbiting_body": "Earth"
        }
    ],
    "orbital_data": {
        "orbit_id": "9",
        "orbit_determination_date": "2017-04-06 09:04:59",
        "first_observation_date": "2007-12-04",
        "last_observation_date": "2007-12-31",
        "data_arc_in_days": 27,
        "observations_used": 24,
        "orbit_uncertainty": "7",
        "minimum_orbit_intersection": ".143141",
        "jupiter_tisserand_invariant": "3.253",
        "epoch_osculation": "2459000.5",
        "eccentricity": ".5426816437784422",
        "semi_major_axis": "2.439526321809197",
        "inclination": "13.17549332050462",
        "ascending_node_longitude": "243.9553417239784",
        "orbital_period": "1391.735449409081",
        "perihelion_distance": "1.115640167449005",
        "perihelion_argument": "200.2857206633808",
        "aphelion_distance": "3.763412476169389",
        "perihelion_time": "2458626.476070555048",
        "mean_anomaly": "96.74871374250992",
        "mean_motion": ".2586698500443119",
        "equinox": "J2000",
        "orbit_class": {
            "orbit_class_type": "AMO",
            "orbit_class_description": "Near-Earth asteroid orbits similar to that of 1221 Amor",
            "orbit_class_range": "1.017 AU < q (perihelion) < 1.3 AU"
        }
    },
    "is_sentry_object": false
}